[{"OBJECT_NAME":"LEMUR-2-GREENBERG","OBJECT_ID":"2017-042N","EPOCH":"2026-03-09T11:05:17.256192","MEAN_MOTION":15.27971352,"ECCENTRICITY":0.00091572,"INCLINATION":97.3781,"RA_OF_ASC_NODE":249.8007,"ARG_OF_PERICENTER":4.0119,"MEAN_ANOMALY":356.1192,"EPHEMERIS_TYPE":0,"CLASSIFICATION_TYPE":"U","NORAD_CAT_ID":42837,"ELEMENT_SET_NO":999,"REV_AT_EPOCH":47314,"BSTAR":0.00072539172,"MEAN_MOTION_DOT":0.00019778,"MEAN_MOTION_DDOT":0},{"OBJECT_NAME":"STARLINK-35420","OBJECT_ID":"2025-245AC","EPOCH":"2026-03-09T20:45:08.121312","MEAN_MOTION":15.3020528,"ECCENTRICITY":6.901e-5,"INCLINATION":53.158,"RA_OF_ASC_NODE":283.0536,"ARG_OF_PERICENTER":117.201,"MEAN_ANOMALY":242.9061,"EPHEMERIS_TYPE":0,"CLASSIFICATION_TYPE":"U","NORAD_CAT_ID":66260,"ELEMENT_SET_NO":999,"REV_AT_EPOCH":2128,"BSTAR":0.00081961264,"MEAN_MOTION_DOT":0.00023998,"MEAN_MOTION_DDOT":0}]
